LEMUR-2-KREMPEL-BRO1    
1 63357U 25061G   26066.48459084  .00007233  00000+0  40343-3 0  9991
2 63357  97.5531  43.1034 0017404 237.4760 122.4790 15.13742154 52247
LEMUR-2-LANGER2SPACE    
1 63358U 25061H   26066.62299001  .00007491  00000+0  42168-3 0  9992
2 63358  97.5534  43.0956 0015312 246.3569 113.6055 15.13431906 52252
LEMUR-2-BALTO           
1 63395U 25052BH  26066.62548277  .00009743  00000+0  81039-3 0  9997
2 63395  97.6983 321.4731 0002538   4.3779 355.7465 14.98897278 53544
