[{"OBJECT_NAME":"LEMUR-2-KREMPEL-BRO1","OBJECT_ID":"2025-061G","EPOCH":"2026-03-07T11:37:48.648576","MEAN_MOTION":15.13742154,"ECCENTRICITY":0.00174049,"INCLINATION":97.5531,"RA_OF_ASC_NODE":43.1034,"ARG_OF_PERICENTER":237.476,"MEAN_ANOMALY":122.479,"EPHEMERIS_TYPE":0,"CLASSIFICATION_TYPE":"U","NORAD_CAT_ID":63357,"ELEMENT_SET_NO":999,"REV_AT_EPOCH":5224,"BSTAR":0.00040343024,"MEAN_MOTION_DOT":7.233e-5,"MEAN_MOTION_DDOT":0},{"OBJECT_NAME":"LEMUR-2-LANGER2SPACE","OBJECT_ID":"2025-061H","EPOCH":"2026-03-07T14:57:06.336864","MEAN_MOTION":15.13431906,"ECCENTRICITY":0.00153125,"INCLINATION":97.5534,"RA_OF_ASC_NODE":43.0956,"ARG_OF_PERICENTER":246.3569,"MEAN_ANOMALY":113.6055,"EPHEMERIS_TYPE":0,"CLASSIFICATION_TYPE":"U","NORAD_CAT_ID":63358,"ELEMENT_SET_NO":999,"REV_AT_EPOCH":5225,"BSTAR":0.00042167955,"MEAN_MOTION_DOT":7.491e-5,"MEAN_MOTION_DDOT":0},{"OBJECT_NAME":"LEMUR-2-BALTO","OBJECT_ID":"2025-052BH","EPOCH":"2026-03-07T15:00:41.711328","MEAN_MOTION":14.98897278,"ECCENTRICITY":0.00025381,"INCLINATION":97.6983,"RA_OF_ASC_NODE":321.4731,"ARG_OF_PERICENTER":4.3779,"MEAN_ANOMALY":355.7465,"EPHEMERIS_TYPE":0,"CLASSIFICATION_TYPE":"U","NORAD_CAT_ID":63395,"ELEMENT_SET_NO":999,"REV_AT_EPOCH":5354,"BSTAR":0.00081039451,"MEAN_MOTION_DOT":9.743e-5,"MEAN_MOTION_DDOT":0}]
